NORAD_CAT_ID,OBJECT_NAME,OBJECT_TYPE,EPOCH,MEAN_MOTION,ECCENTRICITY,INCLINATION,RA_OF_ASC_NODE,ARG_OF_PERICENTER,MEAN_ANOMALY,BSTAR,MEAN_MOTION_DOT,MEAN_MOTION_DDOT,TLE_LINE0,TLE_LINE1,TLE_LINE2,SEMIMAJOR_AXIS,PERIOD,APOGEE,PERIGEE,DECAYED
55919.0,STARLINK-5871,PAYLOAD,2024-03-26 12:58:26,14.98039328,0.000155,69.9988,302.5867,278.818,81.2803,-0.0029047,-0.00034321,0.0,0 STARLINK-5871,1 55919U 23037F   24086.54058143 -.00034321  00000-0 -29047-2 0  9993,2 55919  69.9988 302.5867 0001550 278.8180  81.2803 14.98039328 57007,6951.092,96.126,574.034,571.879,0.0
55919.0,STARLINK-5871,PAYLOAD,2024-03-26 14:34:42,14.97919505,0.0005969,69.9998,302.4149,257.4366,102.6125,-0.0038596,-0.00045379,0.0,0 STARLINK-5871,1 55919U 23037F   24086.60744072 -.00045379  00000-0 -38596-2 0  9997,2 55919  69.9998 302.4149 0005969 257.4366 102.6125 14.97919505 56677,6951.463,96.133,577.477,569.178,0.0
55919.0,STARLINK-5871,PAYLOAD,2024-03-26 22:00:00,14.97260372,0.0003077,69.9997,301.6383,270.0444,317.7761,-0.041114,-0.0045202,0.0,0 STARLINK-5871,1 55919U 23037F   24086.91667824 -.00452020  00000-0 -41114-1 0  9994,2 55919  69.9997 301.6383 0003077 270.0444 317.7761 14.97260372 57063,6953.503,96.176,577.507,573.228,0.0
55919.0,STARLINK-5871,PAYLOAD,2024-03-27 14:00:01,14.96712656,0.0003026,69.9999,299.9608,264.636,314.8364,0.0010589,0.00012048,0.0,0 STARLINK-5871,1 55919U 23037F   24087.58334491  .00012048  00000-0  10589-2 0  9992,2 55919  69.9999 299.9608 0003026 264.6360 314.8364 14.96712656 57168,6955.199,96.211,579.169,574.959,0.0
55919.0,STARLINK-5871,PAYLOAD,2024-03-27 22:00:00,14.96697921,0.0003013,69.9997,299.1223,271.4188,303.6092,0.0021168,0.0002421,0.0,0 STARLINK-5871,1 55919U 23037F   24087.91667824  .00024210  00000-0  21168-2 0  9997,2 55919  69.9997 299.1223 0003013 271.4188 303.6092 14.96697921  5806,6955.245,96.212,579.205,575.014,0.0
55919.0,STARLINK-5871,PAYLOAD,2024-03-28 06:00:00,14.96728222,0.0002921,69.9995,298.2839,270.2352,300.3122,-0.0034793,-0.00039702,0.0,0 STARLINK-5871,1 55919U 23037F   24088.25001157 -.00039702  00000-0 -34793-2 0  9998,2 55919  69.9995 298.2839 0002921 270.2352 300.3122 14.96728222 57268,6955.151,96.21,579.047,574.984,0.0
55919.0,STARLINK-5871,PAYLOAD,2024-03-28 14:00:01,14.9672425,0.0002954,69.9998,297.4455,265.6878,300.4029,0.0011349,0.00012925,0.0,0 STARLINK-5871,1 55919U 23037F   24088.58334491  .00012925  00000-0  11349-2 0  9992,2 55919  69.9998 297.4455 0002954 265.6878 300.4029 14.96724250 57313,6955.163,96.21,579.083,574.973,0.0
55919.0,STARLINK-5871,PAYLOAD,2024-03-28 22:00:00,14.9671515,0.0002998,69.9997,296.607,272.7878,288.8727,-0.00026737,-3.15e-05,0.0,0 STARLINK-5871,1 55919U 23037F   24088.91667824 -.00003150  00000-0 -26737-3 0  9998,2 55919  69.9997 296.6070 0002998 272.7878 288.8727 14.96715150  5836,6955.191,96.211,579.141,574.971,0.0
55919.0,STARLINK-5871,PAYLOAD,2024-03-29 06:00:02,14.96722358,0.000299,69.9995,295.7685,270.4348,286.8326,-0.0025805,-0.00029508,0.0,0 STARLINK-5871,1 55919U 23037F   24089.25002315 -.00029508  00000-0 -25805-2 0  9993,2 55919  69.9995 295.7685 0002990 270.4348 286.8326 14.96722358 57417,6955.169,96.21,579.113,574.954,0.0
55919.0,STARLINK-5871,PAYLOAD,2024-03-29 14:00:01,14.96660191,0.0002942,69.9999,294.9301,266.4635,286.287,0.0188,0.00221749,0.0,0 STARLINK-5871,1 55919U 23037F   24089.58334491  .00221749  00000-0  18800-1 0  9997,2 55919  69.9999 294.9301 0002942 266.4635 286.2870 14.96660191 57467,6955.361,96.214,579.273,575.18,0.0
55919.0,STARLINK-5871,PAYLOAD,2024-03-29 22:00:00,14.96760627,0.0002895,69.9998,294.0915,273.2542,275.0671,0.043965,0.00532441,0.0,0 STARLINK-5871,1 55919U 23037F   24089.91667824  .00532441  00000-0  43965-1 0  9997,2 55919  69.9998 294.0915 0002895 273.2542 275.0671 14.96760627 57514,6955.05,96.208,578.929,574.902,0.0
55919.0,STARLINK-5871,PAYLOAD,2024-03-30 00:22:05,14.96773897,0.0002723,69.9983,293.8432,249.4286,110.658,0.00077489,8.802e-05,0.0,0 STARLINK-5871,1 55919U 23037F   24090.01534594  .00008802  00000-0  77489-3 0  9996,2 55919  69.9983 293.8432 0002723 249.4286 110.6580 14.96773897 57526,6955.009,96.207,578.768,574.98,0.0
55919.0,STARLINK-5871,PAYLOAD,2024-03-30 06:46:53,14.96884683,0.00027,69.9983,293.1711,262.2387,97.8465,0.0019486,0.0002238,0.0,0 STARLINK-5871,1 55919U 23037F   24090.28255790  .00022380  00000-0  19486-2 0  9992,2 55919  69.9983 293.1711 0002700 262.2387  97.8465 14.96884683 57567,6954.666,96.2,578.409,574.653,0.0
55919.0,STARLINK-5871,PAYLOAD,2024-03-30 22:48:29,14.97345496,0.000312,69.9984,291.488,259.3303,100.7505,0.0062428,0.00073294,0.0,0 STARLINK-5871,1 55919U 23037F   24090.95034482  .00073294  00000-0  62428-2 0  9993,2 55919  69.9984 291.4880 0003120 259.3303 100.7505 14.97345496 57663,6953.239,96.17,577.273,572.935,0.0
55919.0,STARLINK-5871,PAYLOAD,2024-03-31 06:49:15,14.97529542,0.0003089,69.999,290.646,264.6344,95.4463,0.0079913,0.00094582,0.0,0 STARLINK-5871,1 55919U 23037F   24091.28420849  .00094582  00000-0  79913-2 0  9996,2 55919  69.9990 290.6460 0003089 264.6344  95.4463 14.97529542 57718,6952.669,96.158,576.682,572.387,0.0
55919.0,STARLINK-5871,PAYLOAD,2024-03-31 22:00:00,14.98304933,0.0002996,70.0001,289.0531,271.8629,256.8746,0.0024746,0.00029539,0.0,0 STARLINK-5871,1 55919U 23037F   24091.91667824  .00029539  00000-0  24746-2 0  9996,2 55919  70.0001 289.0531 0002996 271.8629 256.8746 14.98304933 57811,6950.27,96.109,574.218,570.053,0.0
55919.0,STARLINK-5871,PAYLOAD,2024-04-01 14:00:01,14.98342924,0.0003066,70.0004,287.3719,265.981,257.6989,-0.00083596,-0.00010057,0.0,0 STARLINK-5871,1 55919U 23037F   24092.58334491 -.00010057  00000-0 -83596-3 0  9997,2 55919  70.0004 287.3719 0003066 265.9810 257.6989 14.98342924  5787,6950.153,96.106,574.149,569.887,0.0
55919.0,STARLINK-5871,PAYLOAD,2024-04-01 22:00:00,14.98312575,0.0003056,70.0002,286.5315,272.6228,248.5522,0.003246,0.00038836,0.0,0 STARLINK-5871,1 55919U 23037F   24092.91667824  .00038836  00000-0  32460-2 0  9999,2 55919  70.0002 286.5315 0003056 272.6228 248.5522 14.98312575 57963,6950.247,96.108,574.236,569.988,0.0
55919.0,STARLINK-5871,PAYLOAD,2024-04-02 06:00:02,14.98321836,0.0003093,70.0002,285.691,270.0242,248.6792,-0.0013443,-0.00016093,0.0,0 STARLINK-5871,1 55919U 23037F   24093.25002315 -.00016093  00000-0 -13443-2 0  9998,2 55919  70.0002 285.6910 0003093 270.0242 248.6792 14.98321836 58010,6950.218,96.108,574.233,569.933,0.0
55919.0,STARLINK-5871,PAYLOAD,2024-04-02 14:00:01,14.98341322,0.0003135,70.0004,284.8507,267.3348,248.765,-0.0014698,-0.00017592,0.0,0 STARLINK-5871,1 55919U 23037F   24093.58334491 -.00017592  00000-0 -14698-2 0  9995,2 55919  70.0004 284.8507 0003135 267.3348 248.7650 14.98341322  5634,6950.158,96.106,574.202,569.844,0.0
55919.0,STARLINK-5871,PAYLOAD,2024-04-02 22:00:01,14.9830419,0.000311,70.0001,284.0102,273.9914,239.6585,0.0033802,0.00040446,0.0,0 STARLINK-5871,1 55919U 23037F   24093.91668981  .00040446  00000-0  33802-2 0  9996,2 55919  70.0001 284.0102 0003110 273.9914 239.6585 14.98304190 58118,6950.273,96.109,574.299,569.976,0.0
55919.0,STARLINK-5871,PAYLOAD,2024-04-03 14:00:01,14.98350534,0.0003075,70.0001,282.3295,267.8827,240.6487,-0.0019475,-0.00023266,0.0,0 STARLINK-5871,1 55919U 23037F   24094.58334491 -.00023266  00000-0 -19475-2 0  9999,2 55919  70.0001 282.3295 0003075 267.8827 240.6487 14.98350534  5788,6950.129,96.106,574.132,569.857,0.0
55919.0,STARLINK-5871,PAYLOAD,2024-04-03 22:00:00,14.98314295,0.000307,69.9998,281.489,274.6564,231.3775,0.0034929,0.00041816,0.0,0 STARLINK-5871,1 55919U 23037F   24094.91667824  .00041816  00000-0  34929-2 0  9995,2 55919  69.9998 281.4890 0003070 274.6564 231.3775 14.98314295  5837,6950.241,96.108,574.24,569.973,0.0
55919.0,STARLINK-5871,PAYLOAD,2024-04-04 05:21:42,14.98329823,0.0002935,69.9984,280.7159,269.8516,90.2306,8.2548e-05,8.92e-06,0.0,0 STARLINK-5871,1 55919U 23037F   24095.22340986  .00000892  00000-0  82548-4 0  9998,2 55919  69.9984 280.7159 0002935 269.8516  90.2306 14.98329823 58309,6950.193,96.107,574.098,570.019,0.0
55919.0,STARLINK-5871,PAYLOAD,2024-04-04 14:58:30,14.98331666,0.0003112,69.998,279.7051,270.783,89.2972,0.00011244,1.249e-05,0.0,0 STARLINK-5871,1 55919U 23037F   24095.62396764  .00001249  00000-0  11244-3 0  9998,2 55919  69.9980 279.7051 0003112 270.7830  89.2972 14.98331666 58026,6950.188,96.107,574.216,569.89,0.0
55919.0,STARLINK-5871,PAYLOAD,2024-04-04 21:23:02,14.98334011,0.000308,69.9981,279.0319,270.3947,89.6859,0.00013185,1.481e-05,0.0,0 STARLINK-5871,1 55919U 23037F   24095.89100528  .00001481  00000-0  13185-3 0  9992,2 55919  69.9981 279.0319 0003080 270.3947  89.6859 14.98334011 58065,6950.18,96.107,574.186,569.905,0.0
55919.0,STARLINK-5871,PAYLOAD,2024-04-05 05:23:42,14.98336523,0.0003071,69.9981,278.1904,268.9986,91.0821,0.00012875,1.444e-05,0.0,0 STARLINK-5871,1 55919U 23037F   24096.22480253  .00001444  00000-0  12875-3 0  9990,2 55919  69.9981 278.1904 0003071 268.9986  91.0821 14.98336523 58450,6950.173,96.107,574.172,569.903,0.0
55919.0,STARLINK-5871,PAYLOAD,2024-04-05 13:24:23,14.98338985,0.0003057,69.9982,277.3486,268.8584,91.2225,8.803e-05,9.58e-06,0.0,0 STARLINK-5871,1 55919U 23037F   24096.55860038  .00000958  00000-0  88030-4 0  9995,2 55919  69.9982 277.3486 0003057 268.8584  91.2225 14.98338985 58166,6950.165,96.106,574.155,569.905,0.0
55919.0,STARLINK-5871,PAYLOAD,2024-04-05 21:25:03,14.98340819,0.000304,69.9982,276.5067,269.0914,90.9897,0.00010124,1.115e-05,0.0,0 STARLINK-5871,1 55919U 23037F   24096.89239662  .00001115  00000-0  10124-3 0  9999,2 55919  69.9982 276.5067 0003040 269.0914  90.9897 14.98340819 58210,6950.159,96.106,574.137,569.912,0.0
55919.0,STARLINK-5871,PAYLOAD,2024-04-06 05:25:42,14.98357774,0.0002985,69.9987,275.6649,263.5957,96.4862,-0.00032404,-3.96e-05,0.0,0 STARLINK-5871,1 55919U 23037F   24097.22619197 -.00003960  00000-0 -32404-3 0  9999,2 55919  69.9987 275.6649 0002985 263.5957  96.4862 14.98357774 58608,6950.107,96.105,574.047,569.897,0.0
